STARLINK-31238          
1 58853U 24019A   24053.52309555 -.00160549  00000+0 -33578-2 0  9997
2 58853  43.0007 135.3412 0001292 294.4771  65.5952 15.45260211  4746
STARLINK-31158          
1 58854U 24019B   24055.58335648  .00074119  00000+0  28191-2 0  9998
2 58854  42.9997 123.8589 0001173 263.8098 216.9731 15.25860320  5170
STARLINK-31237          
1 58855U 24019C   24055.58335648  .00122965  00000+0  42734-2 0  9991
2 58855  43.0008 124.0636 0003062 300.6255  95.5514 15.28564165  5256
STARLINK-31244          
1 58856U 24019D   24055.25001157  .00062201  00000+0  23703-2 0  9992
2 58856  43.0004 125.9453 0001178 265.2745  95.1113 15.25872942  5158
STARLINK-31216          
1 58857U 24019E   24055.58335648  .00018765  00000+0  72565-3 0  9991
2 58857  43.0001 123.4138 0001538 282.5801  12.3705 15.25896578  5210
STARLINK-31226          
1 58858U 24019F   24055.25001157  .00039097  00000+0  14986-2 0  9994
2 58858  42.9999 125.8250 0000910 269.9455 140.1927 15.25863982  5313
STARLINK-31197          
1 58859U 24019G   24054.91668981  .00028941  00000+0  11123-2 0  9997
2 58859  43.0007 127.9414 0001724 272.2502   5.1623 15.25897270  5359
STARLINK-31213          
1 58860U 24019H   24054.91668981  .00035062  00000+0  13448-2 0  9993
2 58860  43.0003 128.1176 0001352 272.4151 290.3708 15.25885728  5340
STARLINK-31199          
1 58861U 24019J   24055.58335648 -.00000652  00000+0 -15094-4 0  9999
2 58861  43.0004 124.0383 0001326 264.1729 141.9632 15.25891279  5364
STARLINK-31200          
1 58862U 24019K   24055.58335648 -.00095464  00000+0 -36870-2 0  9998
2 58862  42.9995 123.8282 0001804 270.2466 222.9500 15.25909076  5363
STARLINK-31149          
1 58863U 24019L   24055.15522986  .00003177  00000+0  13124-3 0  9991
2 58863  43.0000 126.9564 0001456 286.1761  73.8929 15.25905919  5299
STARLINK-31242          
1 58864U 24019M   24055.58335648 -.00066607  00000+0 -25580-2 0  9993
2 58864  43.0002 124.1584 0000997 269.7628  86.5632 15.25929792  5367
STARLINK-31223          
1 58865U 24019N   24055.58335648  .00064621  00000+0  24613-2 0  9992
2 58865  42.9997 123.8879 0001584 283.5018 184.8361 15.25873043  5214
STARLINK-31219          
1 58866U 24019P   24055.25001157 -.00106158  00000+0 -40975-2 0  9995
2 58866  42.9998 126.2720 0001631 238.0217 345.4767 15.25986431  5061
STARLINK-31198          
1 58867U 24019Q   24055.58335648 -.00069060  00000+0 -26540-2 0  9999
2 58867  42.9998 123.9613 0001212 261.7840 169.2341 15.25922489  5105
STARLINK-31196          
1 58868U 24019R   24054.91668981 -.00033050  00000+0 -12588-2 0  9992
2 58868  43.0005 127.7598 0001222 271.1892  80.9081 15.25922560  5081
STARLINK-31203          
1 58869U 24019S   24055.46975111  .00009355  00000+0  20030-3 0  9991
2 58869  42.9998 124.1488 0002462 227.4108 132.6543 15.44971259  5359
STARLINK-31201          
1 58870U 24019T   24055.25001157 -.00002264  00000+0 -76739-4 0  9992
2 58870  42.9996 126.3622 0000788 259.0119 287.2188 15.25909864  5102
STARLINK-31214          
1 58871U 24019U   24054.91668981  .00038217  00000+0  14651-2 0  9997
2 58871  43.0005 128.0897 0001502 268.0697 307.1611 15.25868219  5050
STARLINK-31215          
1 58872U 24019V   24054.91668981  .00038564  00000+0  14783-2 0  9999
2 58872  43.0002 128.0002 0001867 274.1747 338.3509 15.25865865  5106
STARLINK-31177          
1 58873U 24019W   24055.25001157 -.02197298  00000+0 -84161-1 0  9994
2 58873  42.9994 125.6246 0001023 279.2494 213.1318 15.29485919  5310
STARLINK-30945          
1 58874U 24019X   24055.58335648 -.00078022  00000+0 -30033-2 0  9997
2 58874  42.9997 123.9042 0000946 258.8073 197.0860 15.25923670  5362
STARLINK-31212          
1 58875U 24019Y   24055.58335648 -.00019236  00000+0 -72785-3 0  9991
2 58875  42.9998 124.4272 0001242 269.5655 334.8384 15.25891216  5205
STARLINK-31306          
1 58876U 24020A   24054.91668981  .00062153  00000+0  22413-2 0  9995
2 58876  53.1609 181.3830 0001315  73.9340 131.8946 15.27968876  5219
STARLINK-31326          
1 58877U 24020B   24055.35222693  .00009571  00000+0  20508-3 0  9990
2 58877  53.1615 178.8230 0001663  58.1890 301.9279 15.45484098  5288
STARLINK-31300          
1 58878U 24020C   24054.91668981  .00044411  00000+0  16080-2 0  9997
2 58878  53.1600 181.3322 0001403  96.9971 134.6493 15.27987709  5226
